{
  "links" : {
    "next" : "https://api.nasa.gov/neo/rest/v1/feed?start_date=2005-08-09&end_date=2005-08-09&detailed=true&api_key=t0TVs3DtDT2H8Oy2Zy8m2eVrNsAVKAexjcZXUckd",
    "prev" : "https://api.nasa.gov/neo/rest/v1/feed?start_date=2005-08-07&end_date=2005-08-07&detailed=true&api_key=t0TVs3DtDT2H8Oy2Zy8m2eVrNsAVKAexjcZXUckd",
    "self" : "https://api.nasa.gov/neo/rest/v1/feed?start_date=2005-08-08&end_date=2005-08-08&detailed=true&api_key=t0TVs3DtDT2H8Oy2Zy8m2eVrNsAVKAexjcZXUckd"
  },
  "element_count" : 8,
  "near_earth_objects" : {
    "2005-08-08" : [ {
      "links" : {
        "self" : "https://api.nasa.gov/neo/rest/v1/neo/2137175?api_key=t0TVs3DtDT2H8Oy2Zy8m2eVrNsAVKAexjcZXUckd"
      },
      "neo_reference_id" : "2137175",
      "name" : "137175 (1999 JA11)",
      "nasa_jpl_url" : "http://ssd.jpl.nasa.gov/sbdb.cgi?sstr=2137175",
      "absolute_magnitude_h" : 18.3,
      "estimated_diameter" : {
        "kilometers" : {
          "estimated_diameter_min" : 0.5815070396,
          "estimated_diameter_max" : 1.30028927
        },
        "meters" : {
          "estimated_diameter_min" : 581.5070396458,
          "estimated_diameter_max" : 1300.2892700427
        },
        "miles" : {
          "estimated_diameter_min" : 0.3613316107,
          "estimated_diameter_max" : 0.807962044
        },
        "feet" : {
          "estimated_diameter_min" : 1907.8315559515,
          "estimated_diameter_max" : 4266.0410487267
        }
      },
      "is_potentially_hazardous_asteroid" : false,
      "close_approach_data" : [ {
        "close_approach_date" : "2005-08-08",
        "epoch_date_close_approach" : 1123484400000,
        "relative_velocity" : {
          "kilometers_per_second" : "10.6775768133",
          "kilometers_per_hour" : "38439.2765278436",
          "miles_per_hour" : "23884.6715736482"
        },
        "miss_distance" : {
          "astronomical" : "0.4818555861",
          "lunar" : "187.4418182373",
          "kilometers" : "72084568",
          "miles" : "44791272"
        },
        "orbiting_body" : "Earth"
      } ],
      "orbital_data" : {
        "orbit_id" : "68",
        "orbit_determination_date" : "2017-04-06 09:27:54",
        "orbit_uncertainty" : "0",
        "minimum_orbit_intersection" : ".104956",
        "jupiter_tisserand_invariant" : "5.013",
        "epoch_osculation" : "2458000.5",
        "eccentricity" : ".3411008587657278",
        "semi_major_axis" : "1.26121243550978",
        "inclination" : "16.43149011376786",
        "ascending_node_longitude" : "116.263827235875",
        "orbital_period" : "517.3456398145159",
        "perihelion_distance" : ".8310117906713791",
        "perihelion_argument" : "328.29043808804",
        "aphelion_distance" : "1.691413080348181",
        "perihelion_time" : "2457875.981740771231",
        "mean_anomaly" : "86.64724291177626",
        "mean_motion" : ".6958597353387783",
        "equinox" : "J2000"
      }
    }, {
      "links" : {
        "self" : "https://api.nasa.gov/neo/rest/v1/neo/3724110?api_key=t0TVs3DtDT2H8Oy2Zy8m2eVrNsAVKAexjcZXUckd"
      },
      "neo_reference_id" : "3724110",
      "name" : "(2015 NY13)",
      "nasa_jpl_url" : "http://ssd.jpl.nasa.gov/sbdb.cgi?sstr=3724110",
      "absolute_magnitude_h" : 21.1,
      "estimated_diameter" : {
        "kilometers" : {
          "estimated_diameter_min" : 0.160160338,
          "estimated_diameter_max" : 0.358129403
        },
        "meters" : {
          "estimated_diameter_min" : 160.1603379786,
          "estimated_diameter_max" : 358.1294030194
        },
        "miles" : {
          "estimated_diameter_min" : 0.0995189894,
          "estimated_diameter_max" : 0.2225312253
        },
        "feet" : {
          "estimated_diameter_min" : 525.4604432536,
          "estimated_diameter_max" : 1174.9652706022
        }
      },
      "is_potentially_hazardous_asteroid" : false,
      "close_approach_data" : [ {
        "close_approach_date" : "2005-08-08",
        "epoch_date_close_approach" : 1123484400000,
        "relative_velocity" : {
          "kilometers_per_second" : "17.2866215379",
          "kilometers_per_hour" : "62231.8375365113",
          "miles_per_hour" : "38668.4437181728"
        },
        "miss_distance" : {
          "astronomical" : "0.4021120321",
          "lunar" : "156.421585083",
          "kilometers" : "60155104",
          "miles" : "37378648"
        },
        "orbiting_body" : "Earth"
      } ],
      "orbital_data" : {
        "orbit_id" : "15",
        "orbit_determination_date" : "2017-07-26 06:19:35",
        "orbit_uncertainty" : "1",
        "minimum_orbit_intersection" : ".316524",
        "jupiter_tisserand_invariant" : "4.189",
        "epoch_osculation" : "2458000.5",
        "eccentricity" : ".1938734486389059",
        "semi_major_axis" : "1.589584468757383",
        "inclination" : "32.36162590534845",
        "ascending_node_longitude" : "308.4406749638867",
        "orbital_period" : "732.0215105666493",
        "perihelion_distance" : "1.281406245896546",
        "perihelion_argument" : "42.72053405036652",
        "aphelion_distance" : "1.897762691618221",
        "perihelion_time" : "2458014.374666935925",
        "mean_anomaly" : "353.1765938229514",
        "mean_motion" : ".4917888269722132",
        "equinox" : "J2000"
      }
    }, {
      "links" : {
        "self" : "https://api.nasa.gov/neo/rest/v1/neo/3285304?api_key=t0TVs3DtDT2H8Oy2Zy8m2eVrNsAVKAexjcZXUckd"
      },
      "neo_reference_id" : "3285304",
      "name" : "(2005 OD3)",
      "nasa_jpl_url" : "http://ssd.jpl.nasa.gov/sbdb.cgi?sstr=3285304",
      "absolute_magnitude_h" : 21.2,
      "estimated_diameter" : {
        "kilometers" : {
          "estimated_diameter_min" : 0.1529519353,
          "estimated_diameter_max" : 0.3420109247
        },
        "meters" : {
          "estimated_diameter_min" : 152.9519353442,
          "estimated_diameter_max" : 342.0109247198
        },
        "miles" : {
          "estimated_diameter_min" : 0.095039897,
          "estimated_diameter_max" : 0.2125156703
        },
        "feet" : {
          "estimated_diameter_min" : 501.8108275547,
          "estimated_diameter_max" : 1122.0831222578
        }
      },
      "is_potentially_hazardous_asteroid" : true,
      "close_approach_data" : [ {
        "close_approach_date" : "2005-08-08",
        "epoch_date_close_approach" : 1123484400000,
        "relative_velocity" : {
          "kilometers_per_second" : "16.1532627301",
          "kilometers_per_hour" : "58151.7458281865",
          "miles_per_hour" : "36133.2334008529"
        },
        "miss_distance" : {
          "astronomical" : "0.0981124057",
          "lunar" : "38.165725708",
          "kilometers" : "14677407",
          "miles" : "9120118"
        },
        "orbiting_body" : "Earth"
      } ],
      "orbital_data" : {
        "orbit_id" : "13",
        "orbit_determination_date" : "2017-04-06 09:10:42",
        "orbit_uncertainty" : "0",
        "minimum_orbit_intersection" : ".00757218",
        "jupiter_tisserand_invariant" : "3.228",
        "epoch_osculation" : "2458000.5",
        "eccentricity" : ".6036870749386383",
        "semi_major_axis" : "2.371348584852375",
        "inclination" : "16.2093792689577",
        "ascending_node_longitude" : "323.8193222180477",
        "orbital_period" : "1333.802496250719",
        "perihelion_distance" : ".9397960940029654",
        "perihelion_argument" : "38.26504023252007",
        "aphelion_distance" : "3.802901075701784",
        "perihelion_time" : "2457627.799108490915",
        "mean_anomaly" : "100.5938445312744",
        "mean_motion" : ".2699050279272605",
        "equinox" : "J2000"
      }
    } ]
  }
}